[{"OBJECT_NAME":"STARLINK-34920","OBJECT_ID":"2025-194P","EPOCH":"2026-03-09T13:43:56.540352","MEAN_MOTION":15.05628187,"ECCENTRICITY":0.0001038,"INCLINATION":97.6029,"RA_OF_ASC_NODE":284.3342,"ARG_OF_PERICENTER":40.4245,"MEAN_ANOMALY":319.7058,"EPHEMERIS_TYPE":0,"CLASSIFICATION_TYPE":"U","NORAD_CAT_ID":65447,"ELEMENT_SET_NO":999,"REV_AT_EPOCH":2963,"BSTAR":-0.00032566,"MEAN_MOTION_DOT":-4.754e-5,"MEAN_MOTION_DDOT":0},{"OBJECT_NAME":"CZ-2C DEB","OBJECT_ID":"2014-014C","EPOCH":"2026-03-09T21:03:10.213920","MEAN_MOTION":14.96114302,"ECCENTRICITY":0.00460916,"INCLINATION":98.2261,"RA_OF_ASC_NODE":46.6653,"ARG_OF_PERICENTER":297.3827,"MEAN_ANOMALY":62.2706,"EPHEMERIS_TYPE":0,"CLASSIFICATION_TYPE":"U","NORAD_CAT_ID":39626,"ELEMENT_SET_NO":999,"REV_AT_EPOCH":63530,"BSTAR":0.002211971,"MEAN_MOTION_DOT":0.00025431,"MEAN_MOTION_DDOT":0}]
